COSMOS 2433 (720)       
1 32275U 07052A   23155.52705152 -.00000038  00000+0  00000+0 0  9996
2 32275  66.0427 352.9821 0000544 182.3065 177.7339  2.13104035121431
COSMOS 2432 (719)       
1 32276U 07052B   23155.28057938 -.00000037  00000+0  00000+0 0  9991
2 32276  66.0570 353.0973 0009200 341.6491 136.6495  2.13103297121450
COSMOS 2434 (721)       
1 32393U 07065A   23155.25776953  .00000062  00000+0  00000+0 0  9994
2 32393  64.3398 229.4382 0001358 100.6886 303.6059  2.13103092120146
COSMOS 2436 (723)       
1 32395U 07065C   23155.49207456  .00000062  00000+0  00000+0 0  9999
2 32395  64.3483 229.4908 0015286 356.3525   3.2901  2.13102944120090
COSMOS 2456 (730)       
1 36111U 09070A   23155.62685265  .00000027  00000+0  00000+0 0  9991
2 36111  64.4602 108.9570 0005634 308.3072 179.6568  2.13099125104804
COSMOS 2457 (733)       
1 36112U 09070B   23155.35371104  .00000027  00000+0  00000+0 0  9996
2 36112  64.4439 108.8338 0003403 188.1754 220.3144  2.13101276104802
COSMOS 2460 (732)       
1 36402U 10007C   23155.54285219 -.00000038  00000+0  00000+0 0  9995
2 36402  65.9073 351.7125 0002651  72.2509 108.6921  2.13106256103108
COSMOS 2476 (744)       
1 37867U 11064A   23155.24763056  .00000030  00000+0  00000+0 0  9993
2 37867  64.7420 110.4619 0023178 240.7460 224.8391  2.13101671 90136
COSMOS 2477 (745)       
1 37868U 11064B   23155.40742742  .00000030  00000+0  00000+0 0  9991
2 37868  64.7495 110.5251 0020463 242.2067 163.8853  2.13101557 90134
COSMOS 2475 (743)       
1 37869U 11064C   23155.59110937  .00000030  00000+0  00000+0 0  9997
2 37869  64.7567 110.5303 0025343 257.1456 248.2121  2.13101908 90149
COSMOS 2485 (747)       
1 39155U 13019A   23155.05183845  .00000031  00000+0  00000+0 0  9999
2 39155  64.9030 110.9726 0023475 236.7833 122.9588  2.13101827 78641
COSMOS 2492 (754)       
1 39620U 14012A   23154.53820786 -.00000035  00000+0  00000+0 0  9999
2 39620  65.7918 351.3777 0011947 333.3318  26.6483  2.13103135 71597
COSMOS 2500 (755)       
1 40001U 14032A   23155.19199314 -.00000037  00000+0  00000+0 0  9997
2 40001  65.7302 351.1904 0005231 181.0770 178.9608  2.13106034 69822
COSMOS 2501 (702K)      
1 40315U 14075A   23154.97174157  .00000062  00000+0  00000+0 0  9992
2 40315  63.6438 228.8831 0019571 209.4154 150.5547  2.13101483 66210
COSMOS 2514 (751)       
1 41330U 16008A   23155.42184130 -.00000038  00000+0  00000+0 0  9995
2 41330  65.5280 350.7869 0008559 200.1331 159.8705  2.13102642 56999
COSMOS 2516 (753)       
1 41554U 16032A   23154.60063163  .00000061  00000+0  00000+0 0  9996
2 41554  63.8701 229.2708 0015195 213.8607 146.1206  2.13106532 54589
COSMOS 2522 (752)       
1 42939U 17055A   23155.26419275  .00000061  00000+0  00000+0 0  9992
2 42939  64.1042 229.7460 0008926 239.5373 120.4549  2.13101890 44348
COSMOS 2527 (756)       
1 43508U 18053A   23155.22245961  .00000031  00000+0  00000+0 0  9996
2 43508  65.0649 111.0402 0009119 242.3783 117.4961  2.13102344 38640
COSMOS 2529 (757)       
1 43687U 18086A   23155.32217254  .00000061  00000+0  00000+0 0  9998
2 43687  64.3194 230.1549 0010423 261.0452  98.9169  2.13102083 35652
COSMOS 2534 (758)       
1 44299U 19030A   23155.60299045  .00000061  00000+0  00000+0 0  9997
2 44299  64.3917 230.0633 0012574 281.8911  67.8239  2.13102080 31293
COSMOS 2544 (759)       
1 44850U 19088A   23155.16609302  .00000031  00000+0  00000+0 0  9992
2 44850  65.0507 110.8869 0014339 262.5291  97.2750  2.13102114 27088
COSMOS 2545 (760)       
1 45358U 20018A   23155.36301826 -.00000040  00000+0  00000+0 0  9994
2 45358  64.8681 351.1091 0006625 243.5384 116.4313  2.13102572 25030
COSMOS 2547 (705K)      
1 46805U 20075A   23155.08345186  .00000062  00000+0  00000+0 0  9994
2 46805  64.6187 229.6094 0007908 241.5390 118.4612  2.13103150 20277
COSMOS 2557 (706K)      
1 52984U 22075A   23155.24514149 -.00000040  00000+0  00000+0 0  9993
2 52984  64.7812 353.2824 0010529 286.2429  73.6824  2.13101971  7085
COSMOS 2559 (707K)      
1 54031U 22130A   23155.18678501 -.00000040  00000+0  00000+0 0  9996
2 54031  64.7521 353.4152 0004777 213.4107 146.6008  2.13101192  5051
COSMOS 2564 (761)       
1 54377U 22161A   23154.44217470  .00000061  00000+0  00000+0 0  9997
2 54377  64.7592 229.6673 0010185 222.0431 137.9557  2.13102110  3983
